SENTINEL-3A             
1 41335U 16011A   26192.20098082  .00000041  00000+0  35178-4 0  9996
2 41335  98.6238 259.2385 0001389  91.2614 268.8726 14.26739077541489
SENTINEL-3B             
1 43437U 18039A   26192.17410468  .00000038  00000+0  33847-4 0  9992
2 43437  98.6238 259.3610 0001055 120.7417 239.3868 14.26741288427542
